CORAL                   
1 67684U 98067YA  26095.53517962  .00102857  00000+0  12655-2 0  9994
2 67684  51.6287 297.1745 0013706 275.8736  84.0695 15.59320760  8976
GXIBA-1                 
1 67685U 98067YB  26095.54880757  .00052226  00000+0  76762-3 0  9995
2 67685  51.6303 298.0165 0012581 282.5760  77.3823 15.54864526  8969
UITMSAT-2               
1 67686U 98067YC  26095.27206808  .00071028  00000+0  99793-3 0  9995
2 67686  51.6300 299.1708 0009567 255.7390 104.2539 15.55998101  8921
HMU-SAT2                
1 67687U 98067YD  26094.78362938  .00054021  00000+0  80536-3 0  9997
2 67687  51.6310 301.9093 0009085 256.2021 103.7959 15.54504888  8760
LEOPARD                 
1 67688U 98067YE  26095.53801153  .00058458  00000+0  83932-3 0  9990
2 67688  51.6305 297.9469 0009272 257.5605 102.4348 15.55496232  8881
CREW DRAGON 12          
1 67796U 26031A   26095.55331949  .00008543  00000+0  16420-3 0  9993
2 67796  51.6328 299.5432 0006351 274.8255  85.2008 15.48786980560486
PROGRESS-MS 33          
1 68319U 26058A   26095.55331949  .00008543  00000+0  16420-3 0  9994
2 68319  51.6328 299.5432 0006351 274.8255  85.2008 15.48786980  1994
